ONEWEB-0427             
1 50499U 21132AG  25331.14099089  .00000075  00000+0  15646-3 0  9996
2 50499  87.9199  15.5618 0001599  99.1835 260.9478 13.18685958194988
ONEWEB-0429             
1 50500U 21132AH  25331.12778529 -.00000015  00000+0 -71340-4 0  9990
2 50500  87.9198  15.5960 0001960  95.0904 265.0452 13.18684551194957
ONEWEB-0430             
1 50501U 21132AJ  25331.19211933  .00000017  00000+0  11483-4 0  9991
2 50501  87.9199  15.5784 0001876  88.5919 271.5427 13.18684752195006
ONEWEB-0432             
1 50502U 21132AK  25330.69279060 -.00000008  00000+0 -52390-4 0  9995
2 50502  87.9195  15.6507 0001005  79.2801 280.8445 13.18674847194891
ONEWEB-0440             
1 50503U 21132AL  25331.13602993  .00000039  00000+0  66753-4 0  9991
2 50503  87.9198  15.5798 0002190 103.5828 256.5549 13.18684356194949
ONEWEB-0450             
1 50504U 21132AM  25330.67432737 -.00000014  00000+0 -68987-4 0  9993
2 50504  87.9193  15.6942 0002040  92.1197 268.0169 13.18686684194912
ONEWEB-0410             
1 51622U 22012A   25330.77144407  .00000091  00000+0  20230-3 0  9999
2 51622  87.9137  46.0930 0001123 155.8244 204.2941 13.17648115187040
ONEWEB-0411             
1 51623U 22012B   25330.81834521  .00000653  00000+0  18331-2 0  9990
2 51623  87.8804  76.6074 0001698  84.3911 275.7410 13.10376833182781
